EUTELSAT 21B            
1 38992U 12062B   25358.97808400  .00000151  00000+0  00000+0 0  9996
2 38992   0.0657 349.5129 0003244 289.9649 187.9548  1.00271068 48081
EUTELSAT 70B            
1 39020U 12069A   25359.20159875 -.00000022  00000+0  00000+0 0  9996
2 39020   0.0618 347.7710 0004190 267.2832 341.9806  1.00271933 47765
EUTELSAT 117 WEST A     
1 39122U 13012A   25359.25739375  .00000008  00000+0  00000+0 0  9995
2 39122   0.0187 321.0980 0002753 316.4443 152.3440  1.00270796 46685
EUTELSAT 7B             
1 39163U 13022A   25358.97522398  .00000069  00000+0  00000+0 0  9991
2 39163   0.0657   9.0547 0004608 313.3925 129.3681  1.00271638 46201
EXPRESS-AT1             
1 39612U 14010A   25359.07405767  .00000100  00000+0  00000+0 0  9996
2 39612   0.0118 294.5388 0000882 184.5356  57.4217  1.00271310 43077
EXPRESS-AT2             
1 39613U 14010B   25359.21751258 -.00000260  00000+0  00000+0 0  9990
2 39613   0.0164 293.9073 0001586 338.8079  39.4318  1.00271893 42753
EUTELSAT 3B             
1 39773U 14030A   25359.25966579  .00000041  00000+0  00000+0 0  9993
2 39773   0.0607 349.8490 0004260 245.1418 315.6120  1.00270181 42327
EUTELSAT 115 WEST B     
1 40425U 15010B   25358.41664749 -.00000004  00000+0  00000+0 0  9999
2 40425   0.0435 188.9150 0000143 182.2118 117.1483  1.00271259 39646
